STARLINK-11192 [DTC]    
1 60308U 24133H   24228.25001157  .00045411  00000+0  28023-3 0  9991
2 60308  53.1631  86.2028 0000410 128.0258 189.2947 15.76707722  3989
STARLINK-11213 [DTC]    
1 60309U 24133J   24227.91667824 -.01494292  00000+0 -88219-2 0  9993
2 60309  53.1634  87.7641 0000540  72.8689 199.7439 15.80272666  3776
STARLINK-11200 [DTC]    
1 60310U 24133K   24227.91667824 -.01496121  00000+0 -83095-2 0  9995
2 60310  53.1632  87.7194 0000469  70.7046 223.5048 15.81584944  3939
STARLINK-11208 [DTC]    
1 60311U 24133L   24227.91667824 -.01500012  00000+0 -78166-2 0  9994
2 60311  53.1632  87.6800 0000475  62.5442 251.0739 15.82939413  3747
STARLINK-11206 [DTC]    
1 60312U 24133M   24228.25001157 -.01532881  00000+0 -79006-2 0  9997
2 60312  53.1624  85.9649 0000478  63.4316   9.1550 15.83231439  3921
STARLINK-11205 [DTC]    
1 60313U 24133N   24228.25001157 -.01213619  00000+0 -59000-2 0  9995
2 60313  53.1623  85.9276 0000618  57.6610  32.8578 15.84252245  3837
STARLINK-32191          
1 60314U 24133P   24226.08334491 -.00606749  00000+0 -24781-2 0  9992
2 60314  53.1617  96.7226 0000344  27.3779 355.8924 15.86809780  3660
STARLINK-32194          
1 60315U 24133Q   24227.33335648 -.00679478  00000+0 -30363-2 0  9999
2 60315  53.1613  90.4045 0000267  76.7750 249.8732 15.85143199  3841
STARLINK-32192          
1 60316U 24133R   24228.25001157 -.00702418  00000+0 -33445-2 0  9992
2 60316  53.1616  85.7805 0000433  55.7555 106.2742 15.83880741  4039
STARLINK-32189          
1 60317U 24133S   24227.00001157 -.00645882  00000+0 -28170-2 0  9995
2 60317  53.1614  92.0625 0000488  58.3092 176.4809 15.85561349  3858
STARLINK-32190          
1 60318U 24133T   24228.00001157 -.00660256  00000+0 -31039-2 0  9997
2 60318  53.1617  86.9940 0000450  42.5125 155.0673 15.84045186  3964
STARLINK-32182          
1 60319U 24133U   24227.91667824 -.00673236  00000+0 -31334-2 0  9996
2 60319  53.1615  87.4488 0000528  50.1685  14.8876 15.84284239  3936
STARLINK-32199          
1 60320U 24133V   24228.25001157 -.00721394  00000+0 -34584-2 0  9996
2 60320  53.1619  85.7528 0000519  57.6189 117.8208 15.83783363  3999
STARLINK-32198          
1 60321U 24133W   24228.25001157 -.00729605  00000+0 -35089-2 0  9991
2 60321  53.1617  85.7418 0000489  62.1155 118.3387 15.83737004  4048
2024-135A               
1 60327U 24135A   24226.37088596 -.00000163  00000+0  00000+0 0  9994
2 60327   0.0544 259.1159 0000845 209.3491 140.4585  1.00269658   767
2024-135B               
1 60328U 24135B   24216.20598895 -.00001461  13894-5  00000+0 0  9997
2 60328  26.7102 146.0004 7266972 179.3301 309.7756  2.35609561    45
STARLINK-31745          
1 60329U 24136A   24227.91667824 -.00555534  00000+0 -23304-2 0  9998
2 60329  53.1520 218.8860 0000748 126.2113 125.0741 15.86144851  3237
STARLINK-32153          
1 60330U 24136B   24227.91667824 -.00557471  00000+0 -23333-2 0  9994
2 60330  53.1518 218.8799 0000768 126.6947 127.5157 15.86194895  3093
STARLINK-32203          
1 60331U 24136C   24228.16667824 -.00619876  00000+0 -26428-2 0  9999
2 60331  53.1519 217.6131 0000643  71.8183 173.5178 15.85964741  3129
STARLINK-32171          
1 60332U 24136D   24227.91667824 -.00565543  00000+0 -23517-2 0  9999
2 60332  53.1517 218.8602 0000733 125.7303 137.9456 15.86346775  3043
STARLINK-32133          
1 60333U 24136E   24228.16667824 -.00622300  00000+0 -26476-2 0  9990
2 60333  53.1520 217.6065 0000519  88.9029 159.6449 15.86013801  3061
STARLINK-32132          
1 60334U 24136F   24227.91667824 -.00567827  00000+0 -23560-2 0  9996
2 60334  53.1516 218.8541 0000707 125.0262 141.6165 15.86397076  3098
STARLINK-32168          
1 60335U 24136G   24227.91667824 -.00567746  00000+0 -23500-2 0  9991
2 60335  53.1516 218.8497 0000751 126.6205 142.1511 15.86445605  3196
STARLINK-32079          
1 60336U 24136H   24228.16667824 -.00632406  00000+0 -26678-2 0  9995
2 60336  53.1515 217.5813 0000578 106.4439 154.0730 15.86210603  3278
STARLINK-32187          
1 60337U 24136J   24227.91667824 -.00570891  00000+0 -23523-2 0  9993
2 60337  53.1516 218.8384 0000785 127.6352 146.6680 15.86545137  3146
STARLINK-32078          
1 60338U 24136K   24228.16667824 -.00636151  00000+0 -26719-2 0  9994
2 60338  53.1515 217.5698 0000543 103.7861 162.3075 15.86308492  3225
STARLINK-32175          
1 60339U 24136L   24228.16667824 -.00639042  00000+0 -26784-2 0  9999
2 60339  53.1513 217.5637 0000577 105.8042 163.3621 15.86357810  3224
STARLINK-32176          
1 60340U 24136M   24228.16667824 -.00644070  00000+0 -26944-2 0  9996
2 60340  53.1513 217.5556 0000621 105.2952 167.6604 15.86407496  3224
STARLINK-32185          
1 60341U 24136N   24228.16667824 -.00646026  00000+0 -26967-2 0  9995
2 60341  53.1512 217.5497 0000584 105.4033 170.3886 15.86456548  3223
STARLINK-32221          
1 60342U 24136P   24228.16667824 -.00650116  00000+0 -27085-2 0  9993
2 60342  53.1513 217.5423 0000525 100.8686 178.6434 15.86505897  3178
STARLINK-32083          
1 60343U 24136Q   24227.91667824 -.00805994  00000+0 -29123-2 0  9997
2 60343  53.1515 218.5790 0000760 130.7695 268.4066 15.89696701  2987
STARLINK-32077          
1 60344U 24136R   24228.16667824 -.00656917  00000+0 -27257-2 0  9991
2 60344  53.1513 217.5284 0000519  99.7001 186.4748 15.86604448  3228
STARLINK-32075          
1 60345U 24136S   24228.16667824 -.00665080  00000+0 -27486-2 0  9997
2 60345  53.1512 217.5140 0000616 107.2658 185.8416 15.86703475  3225
STARLINK-32082          
1 60346U 24136T   24228.16667824 -.00661201  00000+0 -27381-2 0  9993
2 60346  53.1513 217.5209 0000555 103.9109 185.8878 15.86653899  3179
STARLINK-32084          
1 60347U 24136U   24228.16667824 -.00667530  00000+0 -27529-2 0  9999
2 60347  53.1512 217.5074 0000566 103.8792 192.4208 15.86752277  3225
STARLINK-32081          
1 60348U 24136V   24228.16667824 -.00672845  00000+0 -27697-2 0  9991
2 60348  53.1513 217.4997 0000570  97.6348 202.4000 15.86801907  3263
STARLINK-32181          
1 60349U 24136W   24228.16667824 -.00679172  00000+0 -27841-2 0  9993
2 60349  53.1512 217.4862 0000641 108.1951 198.3393 15.86900456  3011
STARLINK-32076          
1 60350U 24136X   24228.16667824 -.00674640  00000+0 -27710-2 0  9995
2 60350  53.1512 217.4928 0000540  99.1315 203.9600 15.86850629  3220
STARLINK-32097          
1 60351U 24136Y   24228.16667824 -.00680543  00000+0 -27834-2 0  9992
2 60351  53.1512 217.4804 0000636 107.8882 201.2406 15.86949472  3271
STRIX-4                 
1 60352U 24137A   24227.84707095  .00019402  00000+0  12774-2 0  9998
2 60352  43.0200  73.6379 0004708 326.7592  33.2956 15.07201889  1836
ELECTRON KICK STAGE R/B 
1 60353U 24137B   24227.82619138  .00057109  00000+0  19646-2 0  9998
2 60353  43.0191  71.7711 0070917  99.7437 261.1432 15.26865131  1844
ELECTRON R/B            
1 60354U 24137C   24227.06252620  .07493103  93388-5  13989-2 0  9990
2 60354  42.9539  69.9603 0070986 335.3226 163.4768 16.23819940  1794
STARLINK-32285          
1 60355U 24138A   24227.91667824 -.00661734  00000+0 -22328-2 0  9994
2 60355  53.1619 100.0384 0000365  51.5049 270.2843 15.90716957  2884
STARLINK-32278          
1 60356U 24138B   24227.91667824 -.00793576  20317-3 -22418-2 0  9992
2 60356  53.1611  99.8707 0000424  49.9564 352.1815 15.92727083  2883
STARLINK-32286          
1 60357U 24138C   24227.91667824 -.00668212  00000+0 -22472-2 0  9994
2 60357  53.1617 100.0288 0000353  49.6204 276.5454 15.90795280  2888
STARLINK-32287          
1 60358U 24138D   24227.91667824 -.00662789  00000+0 -22335-2 0  9996
2 60358  53.1617 100.0352 0000354  50.0989 273.1185 15.90744092  2887
STARLINK-32290          
1 60359U 24138E   24227.91667824 -.00727195  17065-3 -22627-2 0  9997
2 60359  53.1617 100.0226 0000363  50.3846 278.8378 15.90848032  2822
STARLINK-32275          
1 60360U 24138F   24227.91667824 -.00730179  17195-3 -22681-2 0  9999
2 60360  53.1616 100.0185 0000370  51.6290 279.4349 15.90882075  2888
STARLINK-32227          
1 60361U 24138G   24227.91667824 -.00810615  21131-3 -22762-2 0  9999
2 60361  53.1608  99.8540 0000414  48.4230   1.5718 15.92845456  2896
STARLINK-32256          
1 60362U 24138H   24227.91667824 -.00795464  20410-3 -22439-2 0  9994
2 60362  53.1610  99.8669 0000425  49.6602 354.2165 15.92754975  2888
STARLINK-32267          
1 60363U 24138J   24227.91667824 -.00732640  17305-3 -22718-2 0  9991
2 60363  53.1616 100.0146 0000350  49.0775 283.8642 15.90916465  2881
STARLINK-32270          
1 60364U 24138K   24228.16667824 -.00652081  00000+0 -22106-2 0  9991
2 60364  53.1612  98.7378 0000356  37.5665 290.8582 15.90604771  2799
STARLINK-32188          
1 60365U 24138L   24227.91667824 -.00745560  17870-3 -23003-2 0  9993
2 60365  53.1615 100.0024 0000377  50.9473 287.8479 15.91017019  2882
STARLINK-32230          
1 60366U 24138M   24228.16667824 -.00660538  00000+0 -22318-2 0  9994
2 60366  53.1609  98.7269 0000431  36.3666 297.1508 15.90687529  2912
STARLINK-32243          
1 60367U 24138N   24227.91667824 -.00754236  18258-3 -23174-2 0  9995
2 60367  53.1612  99.9923 0000355  48.5983 294.9244 15.91099974  2889
STARLINK-32271          
1 60368U 24138P   24227.91667824 -.00759854  18510-3 -23294-2 0  9991
2 60368  53.1611  99.9864 0000366  49.1409 296.9871 15.91145054  2884
STARLINK-32266          
1 60369U 24138Q   24227.91667824 -.00764882  18737-3 -23397-2 0  9994
2 60369  53.1610  99.9813 0000372  49.0790 299.5668 15.91188585  2886
STARLINK-32220          
1 60370U 24138R   24227.91667824 -.00772603  19087-3 -23568-2 0  9995
2 60370  53.1610  99.9744 0000380  49.6372 302.3530 15.91243919  2886
STARLINK-32263          
1 60371U 24138S   24227.91667824 -.00778238  19346-3 -23685-2 0  9994
2 60371  53.1608  99.9687 0000377  48.9282 305.7855 15.91290074  2676
